$$SOE
2460154.500000000, A.D. 2023-Jul-29 00:00:00.0000, 3.635392094225006E+08, 2.761579102314017E+08, 3.168310835270371E+07,
2460161.500000000, A.D. 2023-Aug-05 00:00:00.0000, 3.591959236021792E+08, 2.844326818698052E+08, 3.335555886501859E+07,
2460168.500000000, A.D. 2023-Aug-12 00:00:00.0000, 3.546731802940218E+08, 2.925652004672775E+08, 3.501122284734894E+07,
2460175.500000000, A.D. 2023-Aug-19 00:00:00.0000, 3.499752143540387E+08, 3.005530157985919E+08, 3.664946318973890E+07,
2460182.500000000, A.D. 2023-Aug-26 00:00:00.0000, 3.451062214311246E+08, 3.083937744604867E+08, 3.826966206692418E+07,
2460189.500000000, A.D. 2023-Sep-02 00:00:00.0000, 3.400703581605258E+08, 3.160852154549407E+08, 3.987122014736718E+07,
2460196.500000000, A.D. 2023-Sep-09 00:00:00.0000, 3.348717424956194E+08, 3.236251658596140E+08, 4.145355581904635E+07,
2460203.500000000, A.D. 2023-Sep-16 00:00:00.0000, 3.295144543354359E+08, 3.310115365208174E+08, 4.301610441138098E+07,
2460210.500000000, A.D. 2023-Sep-23 00:00:00.0000, 3.240025368549417E+08, 3.382423180489846E+08, 4.455831739810054E+07,
2460217.500000000, A.D. 2023-Sep-30 00:00:00.0000, 3.183399981897056E+08, 3.453155782989479E+08, 4.607966170874098E+07,
2460224.500000000, A.D. 2023-Oct-07 00:00:00.0000, 3.125308111105372E+08, 3.522294607829958E+08, 4.757961931922801E+07,
2460231.500000000, A.D. 2023-Oct-14 00:00:00.0000, 3.065789117184362E+08, 3.589821806976202E+08, 4.905768675492871E+07,
2460238.500000000, A.D. 2023-Oct-21 00:00:00.0000, 3.004882003820494E+08, 3.655720201608008E+08, 5.051337434051420E+07,
2460245.500000000, A.D. 2023-Oct-28 00:00:00.0000, 2.942625434855655E+08, 3.719973249127173E+08, 5.194620551112726E+07,
2460252.500000000, A.D. 2023-Nov-04 00:00:00.0000, 2.879057747295809E+08, 3.782565017041288E+08, 5.335571623617494E+07,
2460259.500000000, A.D. 2023-Nov-11 00:00:00.0000, 2.814216961572843E+08, 3.843480157682402E+08, 5.474145449041991E+07,
2460266.500000000, A.D. 2023-Nov-18 00:00:00.0000, 2.748140791215266E+08, 3.902703883070021E+08, 5.610297974688362E+07,
2460273.500000000, A.D. 2023-Nov-25 00:00:00.0000, 2.680866652618718E+08, 3.960221940091002E+08, 5.743986248637158E+07,
2460280.500000000, A.D. 2023-Dec-02 00:00:00.0000, 2.612431675158631E+08, 4.016020585830660E+08, 5.875168371956638E+07,
2460287.500000000, A.D. 2023-Dec-09 00:00:00.0000, 2.542872712383418E+08, 4.070086562417533E+08, 6.003803450912911E+07,
2460294.500000000, A.D. 2023-Dec-16 00:00:00.0000, 2.472226357128409E+08, 4.122407071467509E+08, 6.129851546595651E+07,
2460301.500000000, A.D. 2023-Dec-23 00:00:00.0000, 2.400528964011225E+08, 4.172969754967467E+08, 6.253273624338153E+07,
2460308.500000000, A.D. 2023-Dec-30 00:00:00.0000, 2.327816665888389E+08, 4.221762693044961E+08, 6.374031523723844E+07,
2460315.500000000, A.D. 2024-Jan-06 00:00:00.0000, 2.254125366513699E+08, 4.268774394965032E+08, 6.492087946048760E+07,
2460322.500000000, A.D. 2024-Jan-13 00:00:00.0000, 2.179490741100863E+08, 4.313993765267050E+08, 6.607406415351102E+07,
2460329.500000000, A.D. 2024-Jan-20 00:00:00.0000, 2.103948257028377E+08, 4.357410075865375E+08, 6.719951226953194E+07,
2460336.500000000, A.D. 2024-Jan-27 00:00:00.0000, 2.027533194389526E+08, 4.399012950591673E+08, 6.829687407355499E+07,
2460343.500000000, A.D. 2024-Feb-03 00:00:00.0000, 1.950280662086209E+08, 4.438792352655665E+08, 6.936580681574979E+07,
2460350.500000000, A.D. 2024-Feb-10 00:00:00.0000, 1.872225612227231E+08, 4.476738572084256E+08, 7.040597442938524E+07,
2460357.500000000, A.D. 2024-Feb-17 00:00:00.0000, 1.793402854208596E+08, 4.512842213192328E+08, 7.141704724064076E+07,
2460364.500000000, A.D. 2024-Feb-24 00:00:00.0000, 1.713847068827653E+08, 4.547094182208821E+08, 7.239870168766072E+07,
2460371.500000000, A.D. 2024-Mar-02 00:00:00.0000, 1.633592822718257E+08, 4.579485674710492E+08, 7.335062004301411E+07,
2460378.500000000, A.D. 2024-Mar-09 00:00:00.0000, 1.552674584489540E+08, 4.610008162215220E+08, 7.427249012127864E+07,
2460385.500000000, A.D. 2024-Mar-16 00:00:00.0000, 1.471126746517802E+08, 4.638653379893196E+08, 7.516400495134598E+07,
2460392.500000000, A.D. 2024-Mar-23 00:00:00.0000, 1.388983651359502E+08, 4.665413326476530E+08, 7.602486251339534E+07,
2460399.500000000, A.D. 2024-Mar-30 00:00:00.0000, 1.306279600380708E+08, 4.690280276074828E+08, 7.685476574334556E+07,
2460406.500000000, A.D. 2024-Apr-06 00:00:00.0000, 1.223048847149921E+08, 4.713246768191022E+08, 7.765342250547087E+07,
2460413.500000000, A.D. 2024-Apr-13 00:00:00.0000, 1.139325611097446E+08, 4.734305584308450E+08, 7.842054527610546E+07,
2460420.500000000, A.D. 2024-Apr-20 00:00:00.0000, 1.055144101934409E+08, 4.753449737819206E+08, 7.915585084461936E+07,
2460427.500000000, A.D. 2024-Apr-27 00:00:00.0000, 9.705385396674712E+07, 4.770672471665429E+08, 7.985906012462187E+07,
2460434.500000000, A.D. 2024-May-04 00:00:00.0000, 8.855431710881759E+07, 4.785967256651862E+08, 8.052989800973800E+07,
2460441.500000000, A.D. 2024-May-11 00:00:00.0000, 8.001922851225747E+07, 4.799327789412203E+08, 8.116809324388692E+07,
2460448.500000000, A.D. 2024-May-18 00:00:00.0000, 7.145202278661415E+07, 4.810747990249821E+08, 8.177337830051541E+07,
2460455.500000000, A.D. 2024-May-25 00:00:00.0000, 6.285614175589079E+07, 4.820222000787411E+08, 8.234548926818863E+07,
2460462.500000000, A.D. 2024-Jun-01 00:00:00.0000, 5.423503601092443E+07, 4.827744180856206E+08, 8.288416573257762E+07,
2460469.500000000, A.D. 2024-Jun-08 00:00:00.0000, 4.559216676401196E+07, 4.833309104397476E+08, 8.338915063049415E+07,
2460476.500000000, A.D. 2024-Jun-15 00:00:00.0000, 3.693100840611191E+07, 4.836911559829373E+08, 8.386019008394161E+07,
2460483.500000000, A.D. 2024-Jun-22 00:00:00.0000, 2.825505076230308E+07, 4.838546566634640E+08, 8.429703340245187E+07,
2460490.500000000, A.D. 2024-Jun-29 00:00:00.0000, 1.956779892449736E+07, 4.838209389950740E+08, 8.469943329917967E+07,
2460497.500000000, A.D. 2024-Jul-06 00:00:00.0000, 1.087277330454391E+07, 4.835895528445807E+08, 8.506714587626392E+07,
2460504.500000000, A.D. 2024-Jul-13 00:00:00.0000, 2.173511855707557E+06, 4.831600703762921E+08, 8.539993043274254E+07,
2460511.500000000, A.D. 2024-Jul-20 00:00:00.0000, -6.526427521620159E+06, 4.825320863060498E+08, 8.569754937206122E+07,
2460518.500000000, A.D. 2024-Jul-27 00:00:00.0000, -1.522346504442607E+07, 4.817052185076027E+08, 8.595976819136927E+07,
2460525.500000000, A.D. 2024-Aug-03 00:00:00.0000, -2.391399730778138E+07, 4.806791085984188E+08, 8.618635549719822E+07,
2460532.500000000, A.D. 2024-Aug-10 00:00:00.0000, -3.259439557507571E+07, 4.794534225027217E+08, 8.637708303210181E+07,
2460539.500000000, A.D. 2024-Aug-17 00:00:00.0000, -4.126100404977249E+07, 4.780278510158785E+08, 8.653172570976600E+07,
2460546.500000000, A.D. 2024-Aug-24 00:00:00.0000, -4.991013810040562E+07, 4.764021103505227E+08, 8.665006165428409E+07,
2460553.500000000, A.D. 2024-Aug-31 00:00:00.0000, -5.853808232296644E+07, 4.745759426058409E+08, 8.673187222808400E+07,
2460560.500000000, A.D. 2024-Sep-07 00:00:00.0000, -6.714108807523252E+07, 4.725491162896854E+08, 8.677694202554294E+07,
2460567.500000000, A.D. 2024-Sep-14 00:00:00.0000, -7.571537039808686E+07, 4.703214278935830E+08, 8.678505890633962E+07,
2460574.500000000, A.D. 2024-Sep-21 00:00:00.0000, -8.425710635219797E+07, 4.678927049381863E+08, 8.675601428895682E+07,
2460581.500000000, A.D. 2024-Sep-28 00:00:00.0000, -9.276243525640063E+07, 4.652628072643473E+08, 8.668960348533320E+07,
2460588.500000000, A.D. 2024-Oct-05 00:00:00.0000, -1.012274571594536E+08, 4.624316265740221E+08, 8.658562574052355E+07,
2460595.500000000, A.D. 2024-Oct-12 00:00:00.0000, -1.096482299074556E+08, 4.593990872076052E+08, 8.644388425527522E+07,
2460602.500000000, A.D. 2024-Oct-19 00:00:00.0000, -1.180207665576891E+08, 4.561651478930980E+08, 8.626418633100009E+07,
2460609.500000000, A.D. 2024-Oct-26 00:00:00.0000, -1.263410331715554E+08, 4.527298036707230E+08, 8.604634357539523E+07,
2460616.500000000, A.D. 2024-Nov-02 00:00:00.0000, -1.346049467302765E+08, 4.490930878501339E+08, 8.579017213396513E+07,
2460623.500000000, A.D. 2024-Nov-09 00:00:00.0000, -1.428083730780709E+08, 4.452550740271848E+08, 8.549549294144344E+07,
2460630.500000000, A.D. 2024-Nov-16 00:00:00.0000, -1.509471248684360E+08, 4.412158781672899E+08, 8.516213199205059E+07,
2460637.500000000, A.D. 2024-Nov-23 00:00:00.0000, -1.590169594684480E+08, 4.369756607126225E+08, 8.478992062159991E+07,
2460644.500000000, A.D. 2024-Nov-30 00:00:00.0000, -1.670135766150483E+08, 4.325346286779771E+08, 8.437869578036657E+07,
2460651.500000000, A.D. 2024-Dec-07 00:00:00.0000, -1.749326154068294E+08, 4.278930381638542E+08, 8.392830029430056E+07,
2460658.500000000, A.D. 2024-Dec-14 00:00:00.0000, -1.827696513237413E+08, 4.230511985199388E+08, 8.343858327980420E+07,
2460665.500000000, A.D. 2024-Dec-21 00:00:00.0000, -1.905201955965056E+08, 4.180094769285905E+08, 8.290940082550150E+07,
2460672.500000000, A.D. 2024-Dec-28 00:00:00.0000, -1.981796949555691E+08, 4.127683004489592E+08, 8.234061651910156E+07,
2460679.500000000, A.D. 2025-Jan-04 00:00:00.0000, -2.057435291679913E+08, 4.073281579056461E+08, 8.173210177722946E+07,
2460686.500000000, A.D. 2025-Jan-11 00:00:00.0000, -2.132070081903452E+08, 4.016896032936361E+08, 8.108373628372578E+07,
2460693.500000000, A.D. 2025-Jan-18 00:00:00.0000, -2.205653698599535E+08, 3.958532597925079E+08, 8.039540854790217E+07,
2460700.500000000, A.D. 2025-Jan-25 00:00:00.0000, -2.278137778871377E+08, 3.898198239260322E+08, 7.966701652386779E+07,
2460707.500000000, A.D. 2025-Feb-01 00:00:00.0000, -2.349473199665682E+08, 3.835900698480858E+08, 7.889846827347891E+07,
2460714.500000000, A.D. 2025-Feb-08 00:00:00.0000, -2.419610059579052E+08, 3.771648537862681E+08, 7.808968267168769E+07,
2460721.500000000, A.D. 2025-Feb-15 00:00:00.0000, -2.488497661163369E+08, 3.705451186351843E+08, 7.724059015255743E+07,
$$EOE